1 42928U 17051A   18021.21502152  .00361592 -32236-5  55167-3 0  9994
2 42928  19.1723  67.1518 2806959 216.8246  21.8342 10.02466294 13600
1 42928U 17051A   18021.38800295  .00364392 -32340-5  55366-3 0  9999
2 42928  19.1719  66.5944 2806437 217.8427 286.1490 10.02595561 13626
1 42928U 17051A   18021.59486186  .00364355 -32462-5  55245-3 0  9991
2 42928  19.1722  65.9288 2805766 219.0660 312.8260 10.02745257 13644
1 42928U 17051A   18022.04307745  .00364526 -32724-5  55075-3 0  9997
2 42928  19.1716  64.4759 2804280 221.7316 131.0880 10.03070943 13690
1 42928U 17051A   18022.48367512  .00362514 -32973-5  54401-3 0  9996
2 42928  19.1706  63.0463 2802936 224.3480 282.3406 10.03383753 13738
1 42928U 17051A   18022.59081580  .00362451 -33032-5  54476-3 0  9995
2 42928  19.1711  62.7046 2802525 224.9794 309.3650 10.03460863 13745
1 42928U 17051A   18023.14396762  .00361554 -33329-5  53989-3 0  9998
2 42928  19.1706  60.9240 2800772 228.2585 147.9839 10.03857090 13806
1 42928U 17051A   18023.38470896  .00362029 -33455-5  53989-3 0  9993
2 42928  19.1706  60.1465 2799964 229.6830 298.0707 10.04031063 13824
1 42928U 17051A   18023.58278927  .00362420 -33556-5  53989-3 0  9993
2 42928  19.1706  59.5066 2799299 230.8555 294.0851 10.04174390 13841
1 42928U 17051A   18024.02709317  .00363303 -33777-5  53989-3 0  9991
2 42928  19.1706  58.0705 2797805 233.4860 100.5127 10.04496265 13894
1 42928U 17051A   18024.48378178  .00354266 -33990-5  53515-3 0  9998
2 42928  19.1729  56.5749 2795938 236.2040 312.1940 10.04797706 13939
1 42928U 17051A   18025.01730226  .00350389 -34233-5  53450-3 0  9995
2 42928  19.1714  54.8517 2793922 239.3648  82.4266 10.05164382 13988
